GLOBALSTAR M084         
1 38040U 11080A   25199.68530931 -.00000090  00000+0  77679-4 0  9995
2 38040  52.0027 312.5844 0001006 110.0373  39.4673 12.62267162626643
GLOBALSTAR M080         
1 38041U 11080B   25199.73562831 -.00000097  00000+0  39076-4 0  9992
2 38041  52.0078 314.0346 0000594 152.8087 354.7267 12.62263949626776
GLOBALSTAR M082         
1 38042U 11080C   25199.59248103 -.00000095  00000+0  48537-4 0  9990
2 38042  52.0073 269.9350 0000403 185.2489 322.4428 12.62267252627469
GLOBALSTAR M092         
1 38043U 11080D   25199.88410088 -.00000086  00000+0  10119-3 0  9990
2 38043  52.0103 359.4233 0000847  97.9811  55.2215 12.62264960625959
GLOBALSTAR M090         
1 38044U 11080E   25199.61993351 -.00000088  00000+0  89188-4 0  9996
2 38044  52.0115 263.6971 0000258 129.1238  24.4765 12.62260974627585
GLOBALSTAR M086         
1 38045U 11080F   25199.88761399 -.00000046  00000+0  32277-3 0  9991
2 38045  51.9889 263.3537 0001123  56.8296 114.7999 12.62273318627565
GLOBALSTAR M097         
1 39072U 13005A   25199.87655480 -.00000090  00000+0  75486-4 0  9992
2 39072  52.0022 177.9641 0000309  14.8241 345.2635 12.62265664574814
GLOBALSTAR M093         
1 39073U 13005B   25199.92938353 -.00000087  00000+0  95346-4 0  9995
2 39073  51.9789 171.0556 0000371   3.8581 356.2288 12.62266115574770
